{"type": "FeatureCollection", "features": [ {"type": "Feature", "properties": {"norad_id": 67093, "name": "STARLINK-35784", "group": "last-30-days", "lat": -8.458757404381274, "lon": -155.05557082790278, "alt_km": 355.2413346281646, "timestamp": "2025-12-27T11:23:18.582430+00:00", "meta": {"OBJECT_NAME": "STARLINK-35784", "OBJECT_ID": "2025-298U", "EPOCH": "2025-12-27T04:00:01.998720", "MEAN_MOTION": 15.73501469, "ECCENTRICITY": 0.0003697, "INCLINATION": 69.9986, "RA_OF_ASC_NODE": 208.9186, "ARG_OF_PERICENTER": 278.3316, "MEAN_ANOMALY": 130.2043, "EPHEMERIS_TYPE": 0, "CLASSIFICATION_TYPE": "U", "NORAD_CAT_ID": 67093, "ELEMENT_SET_NO": 999, "REV_AT_EPOCH": 329, "BSTAR": -0.014337, "MEAN_MOTION_DOT": -0.0176379, "MEAN_MOTION_DDOT": 0}, "tle": {"line1": "1 67093U 25298U   25361.16668980 -.01763790  00000+0 -14337-1 0  9995", "line2": "2 67093  69.9986 208.9186 0003697 278.3316 130.2043 15.73501469  3291"}}, "geometry": {"type": "Point", "coordinates": [-155.05557082790278, -8.458757404381274]}}, {"type": "Feature", "properties": {"norad_id": 67094, "name": "STARLINK-36202", "group": "last-30-days", "lat": -6.499290524907586, "lon": -154.33090025567824, "alt_km": 355.0964303635292, "timestamp": "2025-12-27T11:23:18.582440+00:00", "meta": {"OBJECT_NAME": "STARLINK-36202", "OBJECT_ID": "2025-298V", "EPOCH": "2025-12-27T04:00:01.998720", "MEAN_MOTION": 15.73492397, "ECCENTRICITY": 0.0003645, "INCLINATION": 69.9985, "RA_OF_ASC_NODE": 208.9163, "ARG_OF_PERICENTER": 279.3337, "MEAN_ANOMALY": 131.3014, "EPHEMERIS_TYPE": 0, "CLASSIFICATION_TYPE": "U", "NORAD_CAT_ID": 67094, "ELEMENT_SET_NO": 999, "REV_AT_EPOCH": 329, "BSTAR": -0.01436, "MEAN_MOTION_DOT": -0.01765633, "MEAN_MOTION_DDOT": 0}, "tle": {"line1": "1 67094U 25298V   25361.16668980 -.01765633  00000+0 -14360-1 0  9990", "line2": "2 67094  69.9985 208.9163 0003645 279.3337 131.3014 15.73492397  3292"}}, "geometry": {"type": "Point", "coordinates": [-154.33090025567824, -6.499290524907586]}}, {"type": "Feature", "properties": {"norad_id": 67095, "name": "STARLINK-36227", "group": "last-30-days", "lat": -4.615641701492873, "lon": -153.64067323216207, "alt_km": 354.93521638168113, "timestamp": "2025-12-27T11:23:18.582450+00:00", "meta": {"OBJECT_NAME": "STARLINK-36227", "OBJECT_ID": "2025-298W", "EPOCH": "2025-12-27T04:00:01.998720", "MEAN_MOTION": 15.7348779, "ECCENTRICITY": 0.000364, "INCLINATION": 69.9983, "RA_OF_ASC_NODE": 208.9134, "ARG_OF_PERICENTER": 279.9745, "MEAN_ANOMALY": 132.6709, "EPHEMERIS_TYPE": 0, "CLASSIFICATION_TYPE": "U", "NORAD_CAT_ID": 67095, "ELEMENT_SET_NO": 999, "REV_AT_EPOCH": 323, "BSTAR": -0.01435, "MEAN_MOTION_DOT": -0.01764314, "MEAN_MOTION_DDOT": 0}, "tle": {"line1": "1 67095U 25298W   25361.16668980 -.01764314  00000+0 -14350-1 0  9995", "line2": "2 67095  69.9983 208.9134 0003640 279.9745 132.6709 15.73487790  3233"}}, "geometry": {"type": "Point", "coordinates": [-153.64067323216207, -4.615641701492873]}}, {"type": "Feature", "properties": {"norad_id": 67096, "name": "STARLINK-36228", "group": "last-30-days", "lat": -2.8831920990423088, "lon": -153.0084163252197, "alt_km": 354.7902612221751, "timestamp": "2025-12-27T11:23:18.582460+00:00", "meta": {"OBJECT_NAME": "STARLINK-36228", "OBJECT_ID": "2025-298X", "EPOCH": "2025-12-27T04:00:01.998720", "MEAN_MOTION": 15.73489553, "ECCENTRICITY": 0.0003727, "INCLINATION": 69.9987, "RA_OF_ASC_NODE": 208.9116, "ARG_OF_PERICENTER": 279.5116, "MEAN_ANOMALY": 134.9732, "EPHEMERIS_TYPE": 0, "CLASSIFICATION_TYPE": "U", "NORAD_CAT_ID": 67096, "ELEMENT_SET_NO": 999, "REV_AT_EPOCH": 323, "BSTAR": -0.014316, "MEAN_MOTION_DOT": -0.01760768, "MEAN_MOTION_DDOT": 0}, "tle": {"line1": "1 67096U 25298X   25361.16668980 -.01760768  00000+0 -14316-1 0  9997", "line2": "2 67096  69.9987 208.9116 0003727 279.5116 134.9732 15.73489553  3232"}}, "geometry": {"type": "Point", "coordinates": [-153.0084163252197, -2.8831920990423088]}}, {"type": "Feature", "properties": {"norad_id": 67097, "name": "STARLINK-36222", "group": "last-30-days", "lat": -1.0263994088860358, "lon": -152.3338672558268, "alt_km": 354.6589248734954, "timestamp": "2025-12-27T11:23:18.582470+00:00", "meta": {"OBJECT_NAME": "STARLINK-36222", "OBJECT_ID": "2025-298Y", "EPOCH": "2025-12-27T04:00:01.998720", "MEAN_MOTION": 15.73484938, "ECCENTRICITY": 0.0003719, "INCLINATION": 69.9984, "RA_OF_ASC_NODE": 208.9089, "ARG_OF_PERICENTER": 279.323, "MEAN_ANOMALY": 137.1427, "EPHEMERIS_TYPE": 0, "CLASSIFICATION_TYPE": "U", "NORAD_CAT_ID": 67097, "ELEMENT_SET_NO": 999, "REV_AT_EPOCH": 323, "BSTAR": -0.014319, "MEAN_MOTION_DOT": -0.01760804, "MEAN_MOTION_DDOT": 0}, "tle": {"line1": "1 67097U 25298Y   25361.16668980 -.01760804  00000+0 -14319-1 0  9992", "line2": "2 67097  69.9984 208.9089 0003719 279.3230 137.1427 15.73484938  3233"}}, "geometry": {"type": "Point", "coordinates": [-152.3338672558268, -1.0263994088860358]}}, {"type": "Feature", "properties": {"norad_id": 67098, "name": "STARLINK-36205", "group": "last-30-days", "lat": 0.9301717524805144, "lon": -151.6234711966698, "alt_km": 354.5403742253293, "timestamp": "2025-12-27T11:23:18.582480+00:00", "meta": {"OBJECT_NAME": "STARLINK-36205", "OBJECT_ID": "2025-298Z", "EPOCH": "2025-12-27T04:00:01.998720", "MEAN_MOTION": 15.73477745, "ECCENTRICITY": 0.0003612, "INCLINATION": 69.9983, "RA_OF_ASC_NODE": 208.9065, "ARG_OF_PERICENTER": 278.8171, "MEAN_ANOMALY": 139.7391, "EPHEMERIS_TYPE": 0, "CLASSIFICATION_TYPE": "U", "NORAD_CAT_ID": 67098, "ELEMENT_SET_NO": 999, "REV_AT_EPOCH": 329, "BSTAR": -0.014317, "MEAN_MOTION_DOT": -0.0176003, "MEAN_MOTION_DDOT": 0}, "tle": {"line1": "1 67098U 25298Z   25361.16668980 -.01760030  00000+0 -14317-1 0  9992", "line2": "2 67098  69.9983 208.9065 0003612 278.8171 139.7391 15.73477745  3299"}}, "geometry": {"type": "Point", "coordinates": [-151.6234711966698, 0.9301717524805144]}}, {"type": "Feature", "properties": {"norad_id": 67099, "name": "STARLINK-36193", "group": "last-30-days", "lat": -23.841468891457883, "lon": -161.1942183230603, "alt_km": 370.8175059235791, "timestamp": "2025-12-27T11:23:18.582492+00:00", "meta": {"OBJECT_NAME": "STARLINK-36193", "OBJECT_ID": "2025-298AA", "EPOCH": "2025-12-27T04:00:01.998720", "MEAN_MOTION": 15.68917324, "ECCENTRICITY": 0.0003721, "INCLINATION": 69.999, "RA_OF_ASC_NODE": 208.9316, "ARG_OF_PERICENTER": 275.3501, "MEAN_ANOMALY": 122.0737, "EPHEMERIS_TYPE": 0, "CLASSIFICATION_TYPE": "U", "NORAD_CAT_ID": 67099, "ELEMENT_SET_NO": 999, "REV_AT_EPOCH": 323, "BSTAR": -0.024965, "MEAN_MOTION_DOT": -0.02518074, "MEAN_MOTION_DDOT": 0}, "tle": {"line1": "1 67099U 25298AA  25361.16668980 -.02518074  00000+0 -24965-1 0  9993", "line2": "2 67099  69.9990 208.9316 0003721 275.3501 122.0737 15.68917324  3236"}}, "geometry": {"type": "Point", "coordinates": [-161.1942183230603, -23.841468891457883]}}, {"type": "Feature", "properties": {"norad_id": 67100, "name": "STARLINK-36215", "group": "last-30-days", "lat": 6.145290070533642, "lon": -149.72129839538542, "alt_km": 353.98323390249243, "timestamp": "2025-12-27T11:23:18.582504+00:00", "meta": {"OBJECT_NAME": "STARLINK-36215", "OBJECT_ID": "2025-298AB", "EPOCH": "2025-12-27T04:00:01.998720", "MEAN_MOTION": 15.73485342, "ECCENTRICITY": 0.0003614, "INCLINATION": 69.9982, "RA_OF_ASC_NODE": 208.8998, "ARG_OF_PERICENTER": 279.6588, "MEAN_ANOMALY": 144.4373, "EPHEMERIS_TYPE": 0, "CLASSIFICATION_TYPE": "U", "NORAD_CAT_ID": 67100, "ELEMENT_SET_NO": 999, "REV_AT_EPOCH": 329, "BSTAR": -0.014282, "MEAN_MOTION_DOT": -0.0175669, "MEAN_MOTION_DDOT": 0}, "tle": {"line1": "1 67100U 25298AB  25361.16668980 -.01756690  00000+0 -14282-1 0  9994", "line2": "2 67100  69.9982 208.8998 0003614 279.6588 144.4373 15.73485342  3294"}}, "geometry": {"type": "Point", "coordinates": [-149.72129839538542, 6.145290070533642]}}, {"type": "Feature", "properties": {"norad_id": 67101, "name": "STARLINK-36200", "group": "last-30-days", "lat": 2.633438147966581, "lon": -151.00424744532148, "alt_km": 354.4385866140701, "timestamp": "2025-12-27T11:23:18.582514+00:00", "meta": {"OBJECT_NAME": "STARLINK-36200", "OBJECT_ID": "2025-298AC", "EPOCH": "2025-12-27T04:00:01.998720", "MEAN_MOTION": 15.73483528, "ECCENTRICITY": 0.0003644, "INCLINATION": 69.9989, "RA_OF_ASC_NODE": 208.9046, "ARG_OF_PERICENTER": 277.2201, "MEAN_ANOMALY": 143.1418, "EPHEMERIS_TYPE": 0, "CLASSIFICATION_TYPE": "U", "NORAD_CAT_ID": 67101, "ELEMENT_SET_NO": 999, "REV_AT_EPOCH": 329, "BSTAR": -0.014321, "MEAN_MOTION_DOT": -0.01760834, "MEAN_MOTION_DDOT": 0}, "tle": {"line1": "1 67101U 25298AC  25361.16668980 -.01760834  00000+0 -14321-1 0  9994", "line2": "2 67101  69.9989 208.9046 0003644 277.2201 143.1418 15.73483528  3296"}}, "geometry": {"type": "Point", "coordinates": [-151.00424744532148, 2.633438147966581]}}, {"type": "Feature", "properties": {"norad_id": 67102, "name": "STARLINK-36255", "group": "last-30-days", "lat": -42.5505961583479, "lon": 146.30368410196826, "alt_km": 346.33970691221475, "timestamp": "2025-12-27T11:23:18.582526+00:00", "meta": {"OBJECT_NAME": "STARLINK-36255", "OBJECT_ID": "2025-299A", "EPOCH": "2025-12-27T04:00:01.998720", "MEAN_MOTION": 15.76302738, "ECCENTRICITY": 0.0001924, "INCLINATION": 42.9986, "RA_OF_ASC_NODE": 228.2891, "ARG_OF_PERICENTER": 273.4991, "MEAN_ANOMALY": 55.4738, "EPHEMERIS_TYPE": 0, "CLASSIFICATION_TYPE": "U", "NORAD_CAT_ID": 67102, "ELEMENT_SET_NO": 999, "REV_AT_EPOCH": 312, "BSTAR": -0.012506, "MEAN_MOTION_DOT": -0.01784363, "MEAN_MOTION_DDOT": 0}, "tle": {"line1": "1 67102U 25299A   25361.16668980 -.01784363  00000+0 -12506-1 0  9992", "line2": "2 67102  42.9986 228.2891 0001924 273.4991  55.4738 15.76302738  3129"}}, "geometry": {"type": "Point", "coordinates": [146.30368410196826, -42.5505961583479]}}]}